start=new Date('2021-09-13T00:00:00.000Z').valueOf();
sats=[{"GP_ID":"184601773","OBJECT_TYPE":"PAYLOAD","RA_OF_ASC_NODE":"280.2243","EPOCH":"2021-09-12T11:57:21.535488","ECCENTRICITY":"0.00004370","NORAD_CAT_ID":"48657","SEMIMAJOR_AXIS":"6925.333","CENTER_NAME":"EARTH","APOAPSIS":"547.501","MEAN_MOTION":"15.06405099","BSTAR":"0.00006043700000","MEAN_MOTION_DOT":"0.00000619","COUNTRY_CODE":"US","ELEMENT_SET_NO":"999","REF_FRAME":"TEME","CLASSIFICATION_TYPE":"U","TLE_LINE2":"2 48657  53.0549 280.2243 0000437  60.2516 299.8517 15.06405099 16640","TIME_SYSTEM":"UTC","MEAN_MOTION_DDOT":"0.0000000000000","OBJECT_ID":"2021-044V","MEAN_ANOMALY":"299.8517","LAUNCH_DATE":"2021-05-26","ARG_OF_PERICENTER":"60.2516","PERIAPSIS":"546.895","EPHEMERIS_TYPE":"0","DECAY_DATE":null,"INCLINATION":"53.0549","PERIOD":"95.592","SITE":"AFETR","OBJECT_NAME":"STARLINK-2734","REV_AT_EPOCH":"1664","RCS_SIZE":"LARGE","TLE_LINE1":"1 48657U 21044V   21255.49816592  .00000619  00000-0  60437-4 0  9990","MEAN_ELEMENT_THEORY":"SGP4","FILE":"3114195"},{"MEAN_MOTION_DOT":"0.00000837","COUNTRY_CODE":"US","BSTAR":"0.00007503300000","MEAN_MOTION":"15.06406650","CLASSIFICATION_TYPE":"U","TLE_LINE2":"2 48658  53.0559 280.8431 0001103  97.2690 262.8424 15.06406650 16620","TIME_SYSTEM":"UTC","REF_FRAME":"TEME","ELEMENT_SET_NO":"999","ECCENTRICITY":"0.00011030","OBJECT_TYPE":"PAYLOAD","RA_OF_ASC_NODE":"280.8431","EPOCH":"2021-09-12T08:40:58.820160","GP_ID":"184573887","APOAPSIS":"547.957","CENTER_NAME":"EARTH","NORAD_CAT_ID":"48658","SEMIMAJOR_AXIS":"6925.328","REV_AT_EPOCH":"1662","OBJECT_NAME":"STARLINK-2647","SITE":"AFETR","PERIOD":"95.592","FILE":"3114003","TLE_LINE1":"1 48658U 21044W   21255.36179190  .00000837  00000-0  75033-4 0  9993","MEAN_ELEMENT_THEORY":"SGP4","RCS_SIZE":"LARGE","MEAN_ANOMALY":"262.8424","LAUNCH_DATE":"2021-05-26","ARG_OF_PERICENTER":"97.2690","OBJECT_ID":"2021-044W","MEAN_MOTION_DDOT":"0.0000000000000","INCLINATION":"53.0559","DECAY_DATE":null,"PERIAPSIS":"546.429","EPHEMERIS_TYPE":"0"},{"FILE":"3114003","TLE_LINE1":"1 48659U 21044X   21255.35810966  .00001403  00000-0  11302-3 0  9994","MEAN_ELEMENT_THEORY":"SGP4","RCS_SIZE":"LARGE","REV_AT_EPOCH":"1662","OBJECT_NAME":"STARLINK-2717","PERIOD":"95.592","SITE":"AFETR","INCLINATION":"53.0554","DECAY_DATE":null,"EPHEMERIS_TYPE":"0","PERIAPSIS":"546.892","MEAN_ANOMALY":"296.5982","ARG_OF_PERICENTER":"63.5055","LAUNCH_DATE":"2021-05-26","OBJECT_ID":"2021-044X","MEAN_MOTION_DDOT":"0.0000000000000","CLASSIFICATION_TYPE":"U","TLE_LINE2":"2 48659  53.0554 280.8559 0000468  63.5055 296.5982 15.06399076 16627","TIME_SYSTEM":"UTC","REF_FRAME":"TEME","ELEMENT_SET_NO":"999","COUNTRY_CODE":"US","MEAN_MOTION_DOT":"0.00001403","BSTAR":"0.00011302000000","MEAN_MOTION":"15.06399076","APOAPSIS":"547.540","CENTER_NAME":"EARTH","SEMIMAJOR_AXIS":"6925.351","NORAD_CAT_ID":"48659","ECCENTRICITY":"0.00004680","RA_OF_ASC_NODE":"280.8559","OBJECT_TYPE":"PAYLOAD","EPOCH":"2021-09-12T08:35:40.674624","GP_ID":"184573729"},{"DECAY_DATE":null,"EPHEMERIS_TYPE":"0","PERIAPSIS":"546.773","INCLINATION":"53.0549","OBJECT_ID":"2021-044Y","MEAN_MOTION_DDOT":"0.0000000000000","LAUNCH_DATE":"2021-05-26","ARG_OF_PERICENTER":"74.4879","MEAN_ANOMALY":"285.6178","MEAN_ELEMENT_THEORY":"SGP4","TLE_LINE1":"1 48660U 21044Y   21255.55345689  .00000707  00000-0  66317-4 0  9996","RCS_SIZE":"LARGE","FILE":"3114195","SITE":"AFETR","PERIOD":"95.592","REV_AT_EPOCH":"1665","OBJECT_NAME":"STARLINK-2688","CENTER_NAME":"EARTH","SEMIMAJOR_AXIS":"6925.333","NORAD_CAT_ID":"48660","APOAPSIS":"547.622","GP_ID":"184601276","ECCENTRICITY":"0.00006130","EPOCH":"2021-09-12T13:16:58.675296","OBJECT_TYPE":"PAYLOAD","RA_OF_ASC_NODE":"279.9770","REF_FRAME":"TEME","ELEMENT_SET_NO":"999","TIME_SYSTEM":"UTC","TLE_LINE2":"2 48660  53.0549 279.9770 0000613  74.4879 285.6178 15.06405164 16659","CLASSIFICATION_TYPE":"U","BSTAR":"0.00006631700000","MEAN_MOTION":"15.06405164","MEAN_MOTION_DOT":"0.00000707","COUNTRY_CODE":"US"},{"ARG_OF_PERICENTER":"81.6623","LAUNCH_DATE":"2021-05-26","MEAN_ANOMALY":"84.3046","MEAN_MOTION_DDOT":"0.0000000000000","OBJECT_ID":"2021-044Z","INCLINATION":"53.0527","EPHEMERIS_TYPE":"0","PERIAPSIS":"546.505","DECAY_DATE":null,"OBJECT_NAME":"STARLINK-2708","REV_AT_EPOCH":"358","SITE":"AFETR","PERIOD":"95.592","FILE":"3114195","RCS_SIZE":"LARGE","MEAN_ELEMENT_THEORY":"SGP4","TLE_LINE1":"1 48661U 21044Z   21255.91667824 -.00003913  00000-0 -24397-3 0  9990","EPOCH":"2021-09-12T22:00:00.999936","OBJECT_TYPE":"PAYLOAD","RA_OF_ASC_NODE":"268.3408","ECCENTRICITY":"0.00010370","GP_ID":"184601450","APOAPSIS":"547.941","SEMIMAJOR_AXIS":"6925.358","NORAD_CAT_ID":"48661","CENTER_NAME":"EARTH","MEAN_MOTION_DOT":"-0.00003913","COUNTRY_CODE":"US","MEAN_MOTION":"15.06396948","BSTAR":"-0.00024397000000","TLE_LINE2":"2 48661  53.0527 268.3408 0001037  81.6623  84.3046 15.06396948  3589","TIME_SYSTEM":"UTC","CLASSIFICATION_TYPE":"U","ELEMENT_SET_NO":"999","REF_FRAME":"TEME"},{"GP_ID":"184601183","ECCENTRICITY":"0.00010840","OBJECT_TYPE":"PAYLOAD","RA_OF_ASC_NODE":"268.3418","EPOCH":"2021-09-12T22:00:00.999936","CENTER_NAME":"EARTH","NORAD_CAT_ID":"48662","SEMIMAJOR_AXIS":"6925.440","APOAPSIS":"548.056","BSTAR":"0.00245030000000","MEAN_MOTION":"15.06370070","MEAN_MOTION_DOT":"0.00036375","COUNTRY_CODE":"US","REF_FRAME":"TEME","ELEMENT_SET_NO":"999","CLASSIFICATION_TYPE":"U","TIME_SYSTEM":"UTC","TLE_LINE2":"2 48662  53.0525 268.3418 0001084  84.4863 101.4535 15.06370070  3568","OBJECT_ID":"2021-044AA","MEAN_MOTION_DDOT":"0.0000000000000","MEAN_ANOMALY":"101.4535","LAUNCH_DATE":"2021-05-26","ARG_OF_PERICENTER":"84.4863","DECAY_DATE":null,"PERIAPSIS":"546.555","EPHEMERIS_TYPE":"0","INCLINATION":"53.0525","PERIOD":"95.594","SITE":"AFETR","REV_AT_EPOCH":"356","OBJECT_NAME":"STARLINK-2726","TLE_LINE1":"1 48662U 21044AA  21255.91667824  .00036375  00000-0  24503-2 0  9995","MEAN_ELEMENT_THEORY":"SGP4","RCS_SIZE":"LARGE","FILE":"3114195"},{"OBJECT_NAME":"STARLINK-2667","REV_AT_EPOCH":"358","PERIOD":"95.593","SITE":"AFETR","FILE":"3114195","RCS_SIZE":"LARGE","MEAN_ELEMENT_THEORY":"SGP4","TLE_LINE1":"1 48663U 21044AB  21255.91667824  .00033958  00000-0  22887-2 0  9993","LAUNCH_DATE":"2021-05-26","ARG_OF_PERICENTER":"77.2164","MEAN_ANOMALY":"128.7541","MEAN_MOTION_DDOT":"0.0000000000000","OBJECT_ID":"2021-044AB","INCLINATION":"53.0536","EPHEMERIS_TYPE":"0","PERIAPSIS":"546.607","DECAY_DATE":null,"MEAN_MOTION_DOT":"0.00033958","COUNTRY_CODE":"US","MEAN_MOTION":"15.06383057","BSTAR":"0.00228870000000","TIME_SYSTEM":"UTC","TLE_LINE2":"2 48663  53.0536 268.3378 0000951  77.2164 128.7541 15.06383057  3582","CLASSIFICATION_TYPE":"U","ELEMENT_SET_NO":"999","REF_FRAME":"TEME","EPOCH":"2021-09-12T22:00:00.999936","RA_OF_ASC_NODE":"268.3378","OBJECT_TYPE":"PAYLOAD","ECCENTRICITY":"0.00009510","GP_ID":"184601370","APOAPSIS":"547.924","SEMIMAJOR_AXIS":"6925.400","NORAD_CAT_ID":"48663","CENTER_NAME":"EARTH"},{"OBJECT_ID":"2021-044AC","MEAN_MOTION_DDOT":"0.0000000000000","LAUNCH_DATE":"2021-05-26","ARG_OF_PERICENTER":"75.8998","MEAN_ANOMALY":"150.0689","DECAY_DATE":null,"PERIAPSIS":"546.426","EPHEMERIS_TYPE":"0","INCLINATION":"53.0526","PERIOD":"95.592","SITE":"AFETR","REV_AT_EPOCH":"358","OBJECT_NAME":"STARLINK-2709","TLE_LINE1":"1 48664U 21044AC  21255.91667824 -.00003094  00000-0 -18895-3 0  9999","MEAN_ELEMENT_THEORY":"SGP4","RCS_SIZE":"LARGE","FILE":"3114195","GP_ID":"184601600","ECCENTRICITY":"0.00011570","EPOCH":"2021-09-12T22:00:00.999936","OBJECT_TYPE":"PAYLOAD","RA_OF_ASC_NODE":"268.3404","CENTER_NAME":"EARTH","SEMIMAJOR_AXIS":"6925.362","NORAD_CAT_ID":"48664","APOAPSIS":"548.029","BSTAR":"-0.00018895000000","MEAN_MOTION":"15.06395511","MEAN_MOTION_DOT":"-0.00003094","COUNTRY_CODE":"US","REF_FRAME":"TEME","ELEMENT_SET_NO":"999","TIME_SYSTEM":"UTC","TLE_LINE2":"2 48664  53.0526 268.3404 0001157  75.8998 150.0689 15.06395511  3589","CLASSIFICATION_TYPE":"U"},{"MEAN_MOTION_DOT":"0.00036941","COUNTRY_CODE":"US","BSTAR":"0.00248750000000","MEAN_MOTION":"15.06377026","TIME_SYSTEM":"UTC","TLE_LINE2":"2 48665  53.0520 268.3396 0001110  73.0830  77.9714 15.06377026  3585","CLASSIFICATION_TYPE":"U","REF_FRAME":"TEME","ELEMENT_SET_NO":"999","ECCENTRICITY":"0.00011100","EPOCH":"2021-09-12T22:00:00.999936","RA_OF_ASC_NODE":"268.3396","OBJECT_TYPE":"PAYLOAD","GP_ID":"184601774","APOAPSIS":"548.053","CENTER_NAME":"EARTH","SEMIMAJOR_AXIS":"6925.419","NORAD_CAT_ID":"48665","REV_AT_EPOCH":"358","OBJECT_NAME":"STARLINK-2653","PERIOD":"95.594","SITE":"AFETR","FILE":"3114195","MEAN_ELEMENT_THEORY":"SGP4","TLE_LINE1":"1 48665U 21044AD  21255.91667824  .00036941  00000-0  24875-2 0  9999","RCS_SIZE":"LARGE","ARG_OF_PERICENTER":"73.0830","LAUNCH_DATE":"2021-05-26","MEAN_ANOMALY":"77.9714","OBJECT_ID":"2021-044AD","MEAN_MOTION_DDOT":"0.0000000000000","INCLINATION":"53.0520","DECAY_DATE":null,"PERIAPSIS":"546.515","EPHEMERIS_TYPE":"0"},{"BSTAR":"0.00310430000000","MEAN_MOTION":"15.06373773","COUNTRY_CODE":"US","MEAN_MOTION_DOT":"0.00046228","REF_FRAME":"TEME","ELEMENT_SET_NO":"999","TIME_SYSTEM":"UTC","TLE_LINE2":"2 48666  53.0538 268.3451 0001479  64.0288 267.0200 15.06373773  3578","CLASSIFICATION_TYPE":"U","GP_ID":"184601507","ECCENTRICITY":"0.00014790","EPOCH":"2021-09-12T22:00:00.999936","OBJECT_TYPE":"PAYLOAD","RA_OF_ASC_NODE":"268.3451","CENTER_NAME":"EARTH","SEMIMAJOR_AXIS":"6925.429","NORAD_CAT_ID":"48666","APOAPSIS":"548.318","SITE":"AFETR","PERIOD":"95.594","REV_AT_EPOCH":"357","OBJECT_NAME":"STARLINK-2666","MEAN_ELEMENT_THEORY":"SGP4","TLE_LINE1":"1 48666U 21044AE  21255.91667824  .00046228  00000-0  31043-2 0  9994","RCS_SIZE":"LARGE","FILE":"3114195","OBJECT_ID":"2021-044AE","MEAN_MOTION_DDOT":"0.0000000000000","LAUNCH_DATE":"2021-05-26","ARG_OF_PERICENTER":"64.0288","MEAN_ANOMALY":"267.0200","DECAY_DATE":null,"EPHEMERIS_TYPE":"0","PERIAPSIS":"546.270","INCLINATION":"53.0538"}];
